[{"OBJECT_NAME":"STARLINK-4578","OBJECT_ID":"2022-125B","EPOCH":"2026-03-10T00:00:02.999808","MEAN_MOTION":15.62568456,"ECCENTRICITY":0.00020465,"INCLINATION":53.2173,"RA_OF_ASC_NODE":215.6942,"ARG_OF_PERICENTER":23.1029,"MEAN_ANOMALY":169.28,"EPHEMERIS_TYPE":0,"CLASSIFICATION_TYPE":"U","NORAD_CAT_ID":53965,"ELEMENT_SET_NO":999,"REV_AT_EPOCH":584,"BSTAR":0.010109163,"MEAN_MOTION_DOT":0.01005123,"MEAN_MOTION_DDOT":0},{"OBJECT_NAME":"STARLINK-11196 [DTC]","OBJECT_ID":"2024-141L","EPOCH":"2026-03-09T10:42:13.325184","MEAN_MOTION":15.69705652,"ECCENTRICITY":0.00014282,"INCLINATION":53.1589,"RA_OF_ASC_NODE":87.5338,"ARG_OF_PERICENTER":69.0438,"MEAN_ANOMALY":291.0733,"EPHEMERIS_TYPE":0,"CLASSIFICATION_TYPE":"U","NORAD_CAT_ID":60408,"ELEMENT_SET_NO":999,"REV_AT_EPOCH":9170,"BSTAR":-2.883658e-6,"MEAN_MOTION_DOT":-9.38e-6,"MEAN_MOTION_DDOT":0}]
